[{"OBJECT_NAME":"DIRECTV 12","OBJECT_ID":"2009-075A","EPOCH":"2026-03-28T16:00:28.272096","MEAN_MOTION":1.00271732,"ECCENTRICITY":3.31e-5,"INCLINATION":0.0112,"RA_OF_ASC_NODE":66.0042,"ARG_OF_PERICENTER":300.8612,"MEAN_ANOMALY":316.5917,"EPHEMERIS_TYPE":0,"CLASSIFICATION_TYPE":"U","NORAD_CAT_ID":36131,"ELEMENT_SET_NO":999,"REV_AT_EPOCH":4574,"BSTAR":0,"MEAN_MOTION_DOT":-1.23e-6,"MEAN_MOTION_DDOT":0},{"OBJECT_NAME":"BEIDOU-2 G1","OBJECT_ID":"2010-001A","EPOCH":"2026-03-28T20:35:09.721824","MEAN_MOTION":1.00272424,"ECCENTRICITY":0.0004264,"INCLINATION":4.106,"RA_OF_ASC_NODE":60.6134,"ARG_OF_PERICENTER":282.9518,"MEAN_ANOMALY":291.9599,"EPHEMERIS_TYPE":0,"CLASSIFICATION_TYPE":"U","NORAD_CAT_ID":36287,"ELEMENT_SET_NO":999,"REV_AT_EPOCH":5936,"BSTAR":0,"MEAN_MOTION_DOT":-2.96e-6,"MEAN_MOTION_DDOT":0},{"OBJECT_NAME":"BREEZE-M R/B","OBJECT_ID":"2010-002B","EPOCH":"2026-03-28T05:11:29.368032","MEAN_MOTION":1.04041808,"ECCENTRICITY":0.02122731,"INCLINATION":10.7612,"RA_OF_ASC_NODE":37.1762,"ARG_OF_PERICENTER":253.1571,"MEAN_ANOMALY":227.0781,"EPHEMERIS_TYPE":0,"CLASSIFICATION_TYPE":"U","NORAD_CAT_ID":36359,"ELEMENT_SET_NO":999,"REV_AT_EPOCH":6138,"BSTAR":0,"MEAN_MOTION_DOT":-2.45e-6,"MEAN_MOTION_DDOT":0},{"OBJECT_NAME":"SDO","OBJECT_ID":"2010-005A","EPOCH":"2026-03-28T12:23:38.721696","MEAN_MOTION":1.00273891,"ECCENTRICITY":6.89e-5,"INCLINATION":34.4837,"RA_OF_ASC_NODE":87.5583,"ARG_OF_PERICENTER":37.649,"MEAN_ANOMALY":144.84,"EPHEMERIS_TYPE":0,"CLASSIFICATION_TYPE":"U","NORAD_CAT_ID":36395,"ELEMENT_SET_NO":999,"REV_AT_EPOCH":5925,"BSTAR":0,"MEAN_MOTION_DOT":-6.3e-7,"MEAN_MOTION_DDOT":0},{"OBJECT_NAME":"INTELSAT 16 (IS-16)","OBJECT_ID":"2010-006A","EPOCH":"2026-03-28T19:33:16.078752","MEAN_MOTION":1.00271379,"ECCENTRICITY":0.0001926,"INCLINATION":0.0278,"RA_OF_ASC_NODE":80.8422,"ARG_OF_PERICENTER":295.6822,"MEAN_ANOMALY":26.8078,"EPHEMERIS_TYPE":0,"CLASSIFICATION_TYPE":"U","NORAD_CAT_ID":36397,"ELEMENT_SET_NO":999,"REV_AT_EPOCH":5884,"BSTAR":0,"MEAN_MOTION_DOT":-2.64e-6,"MEAN_MOTION_DDOT":0},{"OBJECT_NAME":"BREEZE-M DEB [TANK]","OBJECT_ID":"2010-006C","EPOCH":"2026-03-25T21:30:18.897120","MEAN_MOTION":2.26675213,"ECCENTRICITY":0.7196139,"INCLINATION":46.3548,"RA_OF_ASC_NODE":358.0817,"ARG_OF_PERICENTER":189.0595,"MEAN_ANOMALY":142.3345,"EPHEMERIS_TYPE":0,"CLASSIFICATION_TYPE":"U","NORAD_CAT_ID":36399,"ELEMENT_SET_NO":999,"REV_AT_EPOCH":13207,"BSTAR":0.0010331,"MEAN_MOTION_DOT":-1.0e-6,"MEAN_MOTION_DDOT":0},{"OBJECT_NAME":"EWS-G2 (GOES 15)","OBJECT_ID":"2010-008A","EPOCH":"2026-03-28T16:04:45.833952","MEAN_MOTION":1.00270308,"ECCENTRICITY":0.0002661,"INCLINATION":1.0678,"RA_OF_ASC_NODE":84.4611,"ARG_OF_PERICENTER":19.3681,"MEAN_ANOMALY":26.743,"EPHEMERIS_TYPE":0,"CLASSIFICATION_TYPE":"U","NORAD_CAT_ID":36411,"ELEMENT_SET_NO":999,"REV_AT_EPOCH":5883,"BSTAR":0,"MEAN_MOTION_DOT":3.0e-8,"MEAN_MOTION_DDOT":0},{"OBJECT_NAME":"ECHOSTAR 14","OBJECT_ID":"2010-010A","EPOCH":"2026-03-28T12:30:33.401952","MEAN_MOTION":1.00269036,"ECCENTRICITY":0.0001877,"INCLINATION":0.0229,"RA_OF_ASC_NODE":182.824,"ARG_OF_PERICENTER":189.56,"MEAN_ANOMALY":242.2979,"EPHEMERIS_TYPE":0,"CLASSIFICATION_TYPE":"U","NORAD_CAT_ID":36499,"ELEMENT_SET_NO":999,"REV_AT_EPOCH":4574,"BSTAR":0,"MEAN_MOTION_DOT":0,"MEAN_MOTION_DDOT":0},{"OBJECT_NAME":"SES-1","OBJECT_ID":"2010-016A","EPOCH":"2026-03-28T08:02:38.698368","MEAN_MOTION":1.00269608,"ECCENTRICITY":0.00026423,"INCLINATION":0.0127,"RA_OF_ASC_NODE":190.2009,"ARG_OF_PERICENTER":174.6288,"MEAN_ANOMALY":200.5955,"EPHEMERIS_TYPE":0,"CLASSIFICATION_TYPE":"U","NORAD_CAT_ID":36516,"ELEMENT_SET_NO":999,"REV_AT_EPOCH":5822,"BSTAR":0,"MEAN_MOTION_DOT":0,"MEAN_MOTION_DDOT":0},{"OBJECT_NAME":"ASTRA 3B","OBJECT_ID":"2010-021A","EPOCH":"2026-03-28T19:37:38.798688","MEAN_MOTION":1.00269397,"ECCENTRICITY":0.0003488,"INCLINATION":1.2611,"RA_OF_ASC_NODE":84.5367,"ARG_OF_PERICENTER":298.703,"MEAN_ANOMALY":120.9032,"EPHEMERIS_TYPE":0,"CLASSIFICATION_TYPE":"U","NORAD_CAT_ID":36581,"ELEMENT_SET_NO":999,"REV_AT_EPOCH":5806,"BSTAR":0,"MEAN_MOTION_DOT":1.18e-6,"MEAN_MOTION_DDOT":0},{"OBJECT_NAME":"COMSATBW-2","OBJECT_ID":"2010-021B","EPOCH":"2026-03-28T19:55:38.568864","MEAN_MOTION":1.00273459,"ECCENTRICITY":0.0002683,"INCLINATION":0.0162,"RA_OF_ASC_NODE":162.2336,"ARG_OF_PERICENTER":217.4282,"MEAN_ANOMALY":118.6607,"EPHEMERIS_TYPE":0,"CLASSIFICATION_TYPE":"U","NORAD_CAT_ID":36582,"ELEMENT_SET_NO":999,"REV_AT_EPOCH":5815,"BSTAR":0,"MEAN_MOTION_DOT":6.9e-7,"MEAN_MOTION_DDOT":0},{"OBJECT_NAME":"BREEZE-M R/B","OBJECT_ID":"2009-075B","EPOCH":"2026-03-28T05:40:50.253600","MEAN_MOTION":1.99400795,"ECCENTRICITY":0.5761672,"INCLINATION":21.6507,"RA_OF_ASC_NODE":327.6882,"ARG_OF_PERICENTER":85.3087,"MEAN_ANOMALY":27.6509,"EPHEMERIS_TYPE":0,"CLASSIFICATION_TYPE":"U","NORAD_CAT_ID":36587,"ELEMENT_SET_NO":999,"REV_AT_EPOCH":11549,"BSTAR":0,"MEAN_MOTION_DOT":5.0e-8,"MEAN_MOTION_DDOT":0},{"OBJECT_NAME":"BEIDOU-2 G3","OBJECT_ID":"2010-024A","EPOCH":"2026-03-28T20:59:38.496768","MEAN_MOTION":1.00272603,"ECCENTRICITY":0.0008094,"INCLINATION":4.3261,"RA_OF_ASC_NODE":61.8215,"ARG_OF_PERICENTER":326.9401,"MEAN_ANOMALY":192.0829,"EPHEMERIS_TYPE":0,"CLASSIFICATION_TYPE":"U","NORAD_CAT_ID":36590,"ELEMENT_SET_NO":999,"REV_AT_EPOCH":5796,"BSTAR":0,"MEAN_MOTION_DOT":-1.52e-6,"MEAN_MOTION_DDOT":0},{"OBJECT_NAME":"BADR-5","OBJECT_ID":"2010-025A","EPOCH":"2026-03-28T20:02:33.120384","MEAN_MOTION":1.00271943,"ECCENTRICITY":0.0001974,"INCLINATION":0.0615,"RA_OF_ASC_NODE":110.8742,"ARG_OF_PERICENTER":305.3387,"MEAN_ANOMALY":96.6291,"EPHEMERIS_TYPE":0,"CLASSIFICATION_TYPE":"U","NORAD_CAT_ID":36592,"ELEMENT_SET_NO":999,"REV_AT_EPOCH":5241,"BSTAR":0,"MEAN_MOTION_DOT":1.25e-6,"MEAN_MOTION_DDOT":0},{"OBJECT_NAME":"COMS 1","OBJECT_ID":"2010-032A","EPOCH":"2026-03-28T20:31:40.056672","MEAN_MOTION":1.00272717,"ECCENTRICITY":0.0001054,"INCLINATION":4.5984,"RA_OF_ASC_NODE":76.4793,"ARG_OF_PERICENTER":282.4878,"MEAN_ANOMALY":263.3521,"EPHEMERIS_TYPE":0,"CLASSIFICATION_TYPE":"U","NORAD_CAT_ID":36744,"ELEMENT_SET_NO":999,"REV_AT_EPOCH":5028,"BSTAR":0,"MEAN_MOTION_DOT":-3.6e-6,"MEAN_MOTION_DDOT":0},{"OBJECT_NAME":"ARABSAT-5A","OBJECT_ID":"2010-032B","EPOCH":"2026-03-28T20:03:55.488096","MEAN_MOTION":1.00269954,"ECCENTRICITY":0.0003675,"INCLINATION":0.0681,"RA_OF_ASC_NODE":43.1357,"ARG_OF_PERICENTER":353.4354,"MEAN_ANOMALY":121.122,"EPHEMERIS_TYPE":0,"CLASSIFICATION_TYPE":"U","NORAD_CAT_ID":36745,"ELEMENT_SET_NO":999,"REV_AT_EPOCH":5784,"BSTAR":0,"MEAN_MOTION_DOT":1.34e-6,"MEAN_MOTION_DDOT":0},{"OBJECT_NAME":"ECHOSTAR 15","OBJECT_ID":"2010-034A","EPOCH":"2026-03-28T15:55:51.214944","MEAN_MOTION":1.00271476,"ECCENTRICITY":0.0001938,"INCLINATION":0.0286,"RA_OF_ASC_NODE":85.8571,"ARG_OF_PERICENTER":270.1411,"MEAN_ANOMALY":310.2049,"EPHEMERIS_TYPE":0,"CLASSIFICATION_TYPE":"U","NORAD_CAT_ID":36792,"ELEMENT_SET_NO":999,"REV_AT_EPOCH":5751,"BSTAR":0,"MEAN_MOTION_DOT":-2.0e-7,"MEAN_MOTION_DDOT":0},{"OBJECT_NAME":"BEIDOU-2 IGSO-1","OBJECT_ID":"2010-036A","EPOCH":"2026-03-19T22:41:52.146816","MEAN_MOTION":1.00248068,"ECCENTRICITY":0.0054955,"INCLINATION":54.2916,"RA_OF_ASC_NODE":163.7709,"ARG_OF_PERICENTER":219.8858,"MEAN_ANOMALY":238.0541,"EPHEMERIS_TYPE":0,"CLASSIFICATION_TYPE":"U","NORAD_CAT_ID":36828,"ELEMENT_SET_NO":999,"REV_AT_EPOCH":5720,"BSTAR":0,"MEAN_MOTION_DOT":-1.03e-6,"MEAN_MOTION_DDOT":0},{"OBJECT_NAME":"NILESAT 201","OBJECT_ID":"2010-037A","EPOCH":"2026-03-28T19:28:38.794368","MEAN_MOTION":1.00271052,"ECCENTRICITY":0.0002627,"INCLINATION":0.0175,"RA_OF_ASC_NODE":167.2485,"ARG_OF_PERICENTER":204.4225,"MEAN_ANOMALY":99.7077,"EPHEMERIS_TYPE":0,"CLASSIFICATION_TYPE":"U","NORAD_CAT_ID":36830,"ELEMENT_SET_NO":999,"REV_AT_EPOCH":5757,"BSTAR":0,"MEAN_MOTION_DOT":-7.7e-7,"MEAN_MOTION_DDOT":0},{"OBJECT_NAME":"RASCOM-QAF 1R","OBJECT_ID":"2010-037B","EPOCH":"2026-03-28T20:21:38.559744","MEAN_MOTION":1.00270276,"ECCENTRICITY":0.0006523,"INCLINATION":0.0056,"RA_OF_ASC_NODE":170.6629,"ARG_OF_PERICENTER":193.4107,"MEAN_ANOMALY":130.4924,"EPHEMERIS_TYPE":0,"CLASSIFICATION_TYPE":"U","NORAD_CAT_ID":36831,"ELEMENT_SET_NO":999,"REV_AT_EPOCH":5750,"BSTAR":0,"MEAN_MOTION_DOT":-1.0e-8,"MEAN_MOTION_DDOT":0},{"OBJECT_NAME":"AEHF-1 (USA 214)","OBJECT_ID":"2010-039A","EPOCH":"2026-03-28T14:55:41.983680","MEAN_MOTION":1.00276615,"ECCENTRICITY":0.0004318,"INCLINATION":8.0226,"RA_OF_ASC_NODE":69.0947,"ARG_OF_PERICENTER":285.9623,"MEAN_ANOMALY":84.9038,"EPHEMERIS_TYPE":0,"CLASSIFICATION_TYPE":"U","NORAD_CAT_ID":36868,"ELEMENT_SET_NO":999,"REV_AT_EPOCH":5285,"BSTAR":0,"MEAN_MOTION_DOT":1.35e-6,"MEAN_MOTION_DDOT":0},{"OBJECT_NAME":"ZHONGXING-6A","OBJECT_ID":"2010-042A","EPOCH":"2026-03-28T17:30:34.632864","MEAN_MOTION":0.99698829,"ECCENTRICITY":0.0004306,"INCLINATION":4.0192,"RA_OF_ASC_NODE":78.2145,"ARG_OF_PERICENTER":255.6452,"MEAN_ANOMALY":328.1382,"EPHEMERIS_TYPE":0,"CLASSIFICATION_TYPE":"U","NORAD_CAT_ID":37150,"ELEMENT_SET_NO":999,"REV_AT_EPOCH":5707,"BSTAR":0,"MEAN_MOTION_DOT":9.8e-7,"MEAN_MOTION_DDOT":0},{"OBJECT_NAME":"SL-6 R/B(2)","OBJECT_ID":"2010-049B","EPOCH":"2026-03-27T09:14:36.642048","MEAN_MOTION":2.04445079,"ECCENTRICITY":0.73309035,"INCLINATION":61.8411,"RA_OF_ASC_NODE":190.6769,"ARG_OF_PERICENTER":255.6638,"MEAN_ANOMALY":19.8485,"EPHEMERIS_TYPE":0,"CLASSIFICATION_TYPE":"U","NORAD_CAT_ID":37171,"ELEMENT_SET_NO":999,"REV_AT_EPOCH":11538,"BSTAR":0.0018140225,"MEAN_MOTION_DOT":1.54e-6,"MEAN_MOTION_DDOT":0},{"OBJECT_NAME":"XM-5","OBJECT_ID":"2010-053A","EPOCH":"2026-03-28T12:31:40.793952","MEAN_MOTION":1.00270018,"ECCENTRICITY":0.0003972,"INCLINATION":0.0671,"RA_OF_ASC_NODE":270.7657,"ARG_OF_PERICENTER":268.6212,"MEAN_ANOMALY":79.2646,"EPHEMERIS_TYPE":0,"CLASSIFICATION_TYPE":"U","NORAD_CAT_ID":37185,"ELEMENT_SET_NO":999,"REV_AT_EPOCH":5667,"BSTAR":0,"MEAN_MOTION_DOT":-4.2e-7,"MEAN_MOTION_DDOT":0}]
